NORAD_CAT_ID,OBJECT_NAME,OBJECT_TYPE,EPOCH,MEAN_MOTION,ECCENTRICITY,INCLINATION,RA_OF_ASC_NODE,ARG_OF_PERICENTER,MEAN_ANOMALY,BSTAR,MEAN_MOTION_DOT,MEAN_MOTION_DDOT,TLE_LINE0,TLE_LINE1,TLE_LINE2,SEMIMAJOR_AXIS,PERIOD,APOGEE,PERIGEE,DECAYED
53849.0,STARLINK-4770,PAYLOAD,2024-05-21 20:28:04,15.08844315,0.0001054,53.2168,2.6289,84.0816,276.0296,0.00014283,1.986e-05,0.0,0 STARLINK-4770,1 53849U 22114AH  24142.85282948  .00001986  00000-0  14283-3 0  9993,2 53849  53.2168   2.6289 0001054  84.0816 276.0296 15.08844315 93272,6917.867,95.437,540.461,539.003,0.0
53849.0,STARLINK-4770,PAYLOAD,2024-05-21 22:03:25,15.08880307,7.95e-05,53.217,2.3338,82.9198,277.1884,-0.00085941,-0.00013954,0.0,0 STARLINK-4770,1 53849U 22114AH  24142.91904706 -.00013954  00000-0 -85941-3 0  9992,2 53849  53.2170   2.3338 0000795  82.9198 277.1884 15.08880307 93825,6917.757,95.435,540.172,539.072,0.0
53849.0,STARLINK-4770,PAYLOAD,2024-05-22 13:57:18,15.08851584,0.0001051,53.2174,359.3632,91.909,268.2022,-4.6758e-05,-1.032e-05,0.0,0 STARLINK-4770,1 53849U 22114AH  24143.58146279 -.00001032  00000-0 -46758-4 0  9997,2 53849  53.2174 359.3632 0001051  91.9090 268.2022 15.08851584 93929,6917.845,95.437,540.437,538.983,0.0
53849.0,STARLINK-4770,PAYLOAD,2024-05-22 20:18:51,15.08838472,0.0001018,53.2164,358.1712,86.7887,273.3222,-9.1938e-06,-4.34e-06,0.0,0 STARLINK-4770,1 53849U 22114AH  24143.84642924 -.00000434  00000-0 -91938-5 0  9990,2 53849  53.2164 358.1712 0001018  86.7887 273.3222 15.08838472 93428,6917.885,95.438,540.454,539.046,0.0
53849.0,STARLINK-4770,PAYLOAD,2024-05-22 23:29:37,15.08842686,7.6e-05,53.2155,357.5755,93.6668,266.4411,4.1173e-05,3.68e-06,0.0,0 STARLINK-4770,1 53849U 22114AH  24143.97890631  .00000368  00000-0  41173-4 0  9993,2 53849  53.2155 357.5755 0000760  93.6668 266.4411 15.08842686 93981,6917.872,95.437,540.263,539.211,0.0
53849.0,STARLINK-4770,PAYLOAD,2024-05-23 20:09:38,15.08842752,9.06e-05,53.216,353.712,83.188,276.9215,1.5872e-05,-3.5e-07,0.0,0 STARLINK-4770,1 53849U 22114AH  24144.84002770 -.00000035  00000-0  15872-4 0  9998,2 53849  53.2160 353.7120 0000906  83.1880 276.9215 15.08842752 94111,6917.872,95.437,540.364,539.11,0.0
53849.0,STARLINK-4770,PAYLOAD,2024-05-23 23:20:24,15.08847022,8.94e-05,53.2162,353.1139,93.6667,266.4428,8.1884e-05,1.016e-05,0.0,0 STARLINK-4770,1 53849U 22114AH  24144.97250467  .00001016  00000-0  81884-4 0  9995,2 53849  53.2162 353.1139 0000894  93.6667 266.4428 15.08847022 93598,6917.859,95.437,540.342,539.105,0.0
53849.0,STARLINK-4770,PAYLOAD,2024-05-24 20:00:24,15.0884764,8.75e-05,53.2167,349.247,114.9079,245.2004,0.00023686,3.485e-05,0.0,0 STARLINK-4770,1 53849U 22114AH  24145.83362233  .00003485  00000-0  23686-3 0  9993,2 53849  53.2167 349.2470 0000875 114.9079 245.2004 15.08847640 94266,6917.857,95.437,540.327,539.117,0.0
53849.0,STARLINK-4770,PAYLOAD,2024-05-24 23:11:10,15.0886849,8.23e-05,53.2165,348.6566,92.1442,267.9645,0.00047101,7.222e-05,0.0,0 STARLINK-4770,1 53849U 22114AH  24145.96609123  .00007222  00000-0  47101-3 0  9990,2 53849  53.2165 348.6566 0000823  92.1442 267.9645 15.08868490 93747,6917.793,95.436,540.228,539.089,0.0
53849.0,STARLINK-4770,PAYLOAD,2024-05-25 07:08:06,15.08858477,0.0001034,53.2168,347.1638,114.5334,245.5766,0.0002998,4.489e-05,0.0,0 STARLINK-4770,1 53849U 22114AH  24146.29729187  .00004489  00000-0  29980-3 0  9997,2 53849  53.2168 347.1638 0001034 114.5334 245.5766 15.08858477 93793,6917.824,95.436,540.404,538.974,0.0
53849.0,STARLINK-4770,PAYLOAD,2024-05-25 19:51:12,15.08832602,9.15e-05,53.2167,344.7912,74.4075,285.7018,-0.00012165,-2.223e-05,0.0,0 STARLINK-4770,1 53849U 22114AH  24146.82722739 -.00002223  00000-0 -12165-3 0  9995,2 53849  53.2167 344.7912 0000915  74.4075 285.7018 15.08832602 93870,6917.903,95.438,540.401,539.135,0.0
53849.0,STARLINK-4770,PAYLOAD,2024-05-26 13:20:26,15.08841653,0.0001061,53.2167,341.5187,79.6764,280.4347,-0.00020352,-3.525e-05,0.0,0 STARLINK-4770,1 53849U 22114AH  24147.55586521 -.00003525  00000-0 -20352-3 0  9996,2 53849  53.2167 341.5187 0001061  79.6764 280.4347 15.08841653 93989,6917.875,95.437,540.474,539.006,0.0
53849.0,STARLINK-4770,PAYLOAD,2024-05-26 22:52:45,15.08847186,0.0001051,53.217,339.7361,69.4447,290.6658,-6.6301e-06,-3.93e-06,0.0,0 STARLINK-4770,1 53849U 22114AH  24147.95330377 -.00000393  00000-0 -66301-5 0  9992,2 53849  53.2170 339.7361 0001051  69.4447 290.6658 15.08847186 94582,6917.858,95.437,540.45,538.996,0.0
53849.0,STARLINK-4770,PAYLOAD,2024-05-27 13:11:14,15.0883211,9.7e-05,53.2166,337.057,71.9166,288.1931,0.00017566,2.508e-05,0.0,0 STARLINK-4770,1 53849U 22114AH  24148.54947216  .00002508  00000-0  17566-3 0  9999,2 53849  53.2166 337.0570 0000970  71.9166 288.1931 15.08832110 94133,6917.905,95.438,540.441,539.098,0.0
53849.0,STARLINK-4770,PAYLOAD,2024-05-27 19:32:47,15.08830117,9.06e-05,53.2173,335.8677,82.8888,277.2207,0.00016663,2.364e-05,0.0,0 STARLINK-4770,1 53849U 22114AH  24148.81443423  .00002364  00000-0  16663-3 0  9997,2 53849  53.2173 335.8677 0000906  82.8888 277.2207 15.08830117 94710,6917.911,95.438,540.402,539.149,0.0
53849.0,STARLINK-4770,PAYLOAD,2024-05-28 05:05:05,15.08835625,9.49e-05,53.2168,334.0834,81.3925,278.7174,0.00014877,2.08e-05,0.0,0 STARLINK-4770,1 53849U 22114AH  24149.21187322  .00002080  00000-0  14877-3 0  9995,2 53849  53.2168 334.0834 0000949  81.3925 278.7174 15.08835625 94777,6917.894,95.438,540.415,539.102,0.0
53849.0,STARLINK-4770,PAYLOAD,2024-05-28 20:58:57,15.0883732,8.97e-05,53.2177,331.1094,92.8222,267.2873,0.00011837,1.597e-05,0.0,0 STARLINK-4770,1 53849U 22114AH  24149.87427474  .00001597  00000-0  11837-3 0  9997,2 53849  53.2177 331.1094 0000897  92.8222 267.2873 15.08837320 94337,6917.889,95.438,540.374,539.133,0.0
53849.0,STARLINK-4770,PAYLOAD,2024-05-29 20:49:44,15.08844025,8.88e-05,53.2177,326.6478,92.7767,267.3326,0.00014658,2.046e-05,0.0,0 STARLINK-4770,1 53849U 22114AH  24150.86787207  .00002046  00000-0  14658-3 0  9995,2 53849  53.2177 326.6478 0000888  92.7767 267.3326 15.08844025 95026,6917.868,95.437,540.347,539.119,0.0
53849.0,STARLINK-4770,PAYLOAD,2024-05-30 11:08:12,15.08843165,9.05e-05,53.2178,323.9745,103.8225,256.2867,0.00012799,1.75e-05,0.0,0 STARLINK-4770,1 53849U 22114AH  24151.46403243  .00001750  00000-0  12799-3 0  9992,2 53849  53.2178 323.9745 0000905 103.8225 256.2867 15.08843165 94577,6917.871,95.437,540.362,539.11,0.0
53849.0,STARLINK-4770,PAYLOAD,2024-05-30 19:05:07,15.08846671,8.88e-05,53.2176,322.4867,97.077,263.0324,0.00014781,2.066e-05,0.0,0 STARLINK-4770,1 53849U 22114AH  24151.79523031  .00002066  00000-0  14781-3 0  9990,2 53849  53.2176 322.4867 0000888  97.0770 263.0324 15.08846671 95168,6917.86,95.437,540.339,539.111,0.0
53849.0,STARLINK-4770,PAYLOAD,2024-05-31 10:58:59,15.08849299,9.14e-05,53.2175,319.5132,90.6116,269.4981,0.00012907,1.768e-05,0.0,0 STARLINK-4770,1 53849U 22114AH  24152.45762747  .00001768  00000-0  12907-3 0  9999,2 53849  53.2175 319.5132 0000914  90.6116 269.4981 15.08849299 95261,6917.852,95.437,540.349,539.085,0.0
53849.0,STARLINK-4770,PAYLOAD,2024-05-31 17:20:31,15.08844097,8.96e-05,53.2155,318.3236,79.6898,280.4195,7.1192e-05,8.46e-06,0.0,0 STARLINK-4770,1 53849U 22114AH  24152.72258930  .00000846  00000-0  71192-4 0  9991,2 53849  53.2155 318.3236 0000896  79.6898 280.4195 15.08844097 94769,6917.868,95.437,540.353,539.113,0.0
53849.0,STARLINK-4770,PAYLOAD,2024-06-01 14:00:32,15.08834434,0.000126,53.2171,314.4542,107.8668,252.2462,0.000158,2.227e-05,0.0,0 STARLINK-4770,1 53849U 22114AH  24153.58371475  .00002227  00000-0  15800-3 0  9994,2 53849  53.2171 314.4542 0001260 107.8668 252.2462 15.08834434 95432,6917.897,95.438,540.634,538.891,0.0
53849.0,STARLINK-4770,PAYLOAD,2024-06-01 20:22:05,15.08835598,0.000119,53.2169,313.2666,97.3607,262.7521,-4.0242e-05,-9.28e-06,0.0,0 STARLINK-4770,1 53849U 22114AH  24153.84867873 -.00000928  00000-0 -40242-4 0  9992,2 53849  53.2169 313.2666 0001190  97.3607 262.7521 15.08835598 94939,6917.894,95.438,540.582,538.936,0.0
53849.0,STARLINK-4770,PAYLOAD,2024-06-02 10:40:33,15.08835948,0.0001074,53.2173,310.5919,84.1107,276.0008,0.00010256,1.345e-05,0.0,0 STARLINK-4770,1 53849U 22114AH  24154.44483525  .00001345  00000-0  10256-3 0  9990,2 53849  53.2173 310.5919 0001074  84.1107 276.0008 15.08835948 95562,6917.893,95.438,540.501,539.015,0.0
53849.0,STARLINK-4770,PAYLOAD,2024-06-03 10:31:20,15.08839033,0.0001191,53.2184,306.1303,91.5381,268.5747,0.0001943,2.806e-05,0.0,0 STARLINK-4770,1 53849U 22114AH  24155.43843444  .00002806  00000-0  19430-3 0  9996,2 53849  53.2184 306.1303 0001191  91.5381 268.5747 15.08839033 95710,6917.883,95.438,540.572,538.924,0.0
53849.0,STARLINK-4770,PAYLOAD,2024-06-03 16:52:53,15.0884189,0.0001178,53.2182,304.9415,88.963,271.1497,0.00021416,3.122e-05,0.0,0 STARLINK-4770,1 53849U 22114AH  24155.70339377  .00003122  00000-0  21416-3 0  9990,2 53849  53.2182 304.9415 0001178  88.9630 271.1497 15.08841890 95211,6917.875,95.437,540.555,538.925,0.0
53849.0,STARLINK-4770,PAYLOAD,2024-06-03 20:03:39,15.08843752,0.0001116,53.2172,304.3465,83.1318,276.9801,0.00020159,2.922e-05,0.0,0 STARLINK-4770,1 53849U 22114AH  24155.83587532  .00002922  00000-0  20159-3 0  9992,2 53849  53.2172 304.3465 0001116  83.1318 276.9801 15.08843752 95773,6917.869,95.437,540.506,538.962,0.0
53849.0,STARLINK-4770,PAYLOAD,2024-06-04 10:22:07,15.08858156,0.0003097,53.2163,301.6717,82.1811,277.9533,0.00031986,4.808e-05,0.0,0 STARLINK-4770,1 53849U 22114AH  24156.43203013  .00004808  00000-0  31986-3 0  9993,2 53849  53.2163 301.6717 0003097  82.1811 277.9533 15.08858156 95328,6917.825,95.436,541.832,537.547,0.0
53849.0,STARLINK-4770,PAYLOAD,2024-06-04 16:43:40,15.08842222,0.0001794,53.2183,300.4817,87.8766,272.2431,6.1569e-05,6.92e-06,0.0,0 STARLINK-4770,1 53849U 22114AH  24156.69699564  .00000692  00000-0  61569-4 0  9999,2 53849  53.2183 300.4817 0001794  87.8766 272.2431 15.08842222 95367,6917.874,95.437,540.98,538.498,0.0
